[{"OBJECT_NAME":"STARLINK-36056","OBJECT_ID":"2025-304Q","EPOCH":"2026-03-09T17:00:20.625120","MEAN_MOTION":14.98335753,"ECCENTRICITY":0.00031565,"INCLINATION":70.0025,"RA_OF_ASC_NODE":174.5619,"ARG_OF_PERICENTER":259.5658,"MEAN_ANOMALY":100.5145,"EPHEMERIS_TYPE":0,"CLASSIFICATION_TYPE":"U","NORAD_CAT_ID":67206,"ELEMENT_SET_NO":999,"REV_AT_EPOCH":1385,"BSTAR":0.00033379983,"MEAN_MOTION_DOT":3.893e-5,"MEAN_MOTION_DDOT":0},{"OBJECT_NAME":"PSLV DEB","OBJECT_ID":"2001-049AH","EPOCH":"2026-03-09T23:39:21.767904","MEAN_MOTION":14.98984537,"ECCENTRICITY":0.00513683,"INCLINATION":98.1237,"RA_OF_ASC_NODE":87.2704,"ARG_OF_PERICENTER":48.4953,"MEAN_ANOMALY":9.0267,"EPHEMERIS_TYPE":0,"CLASSIFICATION_TYPE":"U","NORAD_CAT_ID":27089,"ELEMENT_SET_NO":999,"REV_AT_EPOCH":31452,"BSTAR":0.000212521,"MEAN_MOTION_DOT":2.577e-5,"MEAN_MOTION_DDOT":0}]
